[

  {"Place_Name" : "Abbas Combe"},
  {"Place_Name" : "Abberley"},
  {"Place_Name" : "Abberton"},
  {"Place_Name" : "Paris"},
  {"Place_Name" : "Prague"},
  {"Place_Name" : "New York"},
  {"Place_Name" : "Las Vegas"},
  {"Place_Name" : "Chicago"},
  {"Place_Name" : "Vancouver"},
  {"Place_Name" : "Montreal"},
  {"Place_Name" : "Los Angeles"},
  {"Place_Name" : "New Orleans"},
  {"Place_Name" : "Philadelphia"},
  {"Place_Name" : "Amsterdam"},
  {"Place_Name" : "Venice"},
  {"Place_Name" : "Vienna"},
  {"Place_Name" : "London"},
  {"Place_Name" : "Detroit"},
  {"Place_Name" : "Miami"},
  {"Place_Name" : "Memphis"},
  {"Place_Name" : "Petra"},
  {"Place_Name" : "Pittsburgh"},
  {"Place_Name" : "Seattle"},
  {"Place_Name" : "Rome"},
  {"Place_Name" : "Bucharest"},
  {"Place_Name" : "Florence"},
  {"Place_Name" : "Barcelona"},
  {"Place_Name" : "Budapest"},
  {"Place_Name" : "Toronto"},
  {"Place_Name" : "Dublin"},
  {"Place_Name" : "Jerusalem"},
  {"Place_Name" : "Boston"},
  {"Place_Name" : "San Francisco"},
  {"Place_Name" : "Moscow"},
  {"Place_Name" : "Edinburgh"},
  {"Place_Name" : "Geneva"},
  {"Place_Name" : "Rio de Janeiro"},
  {"Place_Name" : "Salzburg"},
  {"Place_Name" : "Mumbai"},
  {"Place_Name" : "Singapore"},
  {"Place_Name" : "Naples"},
  {"Place_Name" : "Bologna"},
  {"Place_Name" : "Turin"},
  {"Place_Name" : "Genoa"},
  {"Place_Name" : "Palermo"},
  {"Place_Name" : "Milan"},
  {"Place_Name" : "Cairo"},
  {"Place_Name" : "Buenos Aires"},
  {"Place_Name" : "Sao Paulo"},
  {"Place_Name" : "Dubrovnik"},
  {"Place_Name" : "Helsinki"},
  {"Place_Name" : "Bordeaux"},
  {"Place_Name" : "Nice"},
  {"Place_Name" : "Berlin"},
  {"Place_Name" : "Jaipur"},
  {"Place_Name" : "Oslo"},
  {"Place_Name" : "Warsaw"},
  {"Place_Name" : "St Petersburg"},
  {"Place_Name" : "Madrid"},
  {"Place_Name" : "Athens"},
  {"Place_Name" : "Dallas"},
  {"Place_Name" : "Hong Kong "},
  {"Place_Name" : "Munich"},
  {"Place_Name" : "Birmingham"},
  {"Place_Name" : "Lisbon"},
  {"Place_Name" : "The Hague"},
  {"Place_Name" : "Kolkata"},
  {"Place_Name" : "Beijing"},
  {"Place_Name" : "Adelaide"},
  {"Place_Name" : "Zagreb"},
  {"Place_Name" : "Bruges"},
  {"Place_Name" : "Marseille"},
  {"Place_Name" : "Tel Aviv"},
  {"Place_Name" : "Bolzano"},
  {"Place_Name" : "Sanremo"},
  {"Place_Name" : "Tivoli"},
  {"Place_Name" : "Vicenza"},
  {"Place_Name" : "Kuala Lumpur"},
  {"Place_Name" : "Cuernavaca"},
  {"Place_Name" : "Tijuana"},
  {"Place_Name" : "Rotterdam"},
  {"Place_Name" : "Lima"},
  {"Place_Name" : "Manila"},
  {"Place_Name" : "Porto"},
  {"Place_Name" : "Cadiz"},
  {"Place_Name" : "Bilbao"},
  {"Place_Name" : "Zurich"},
  {"Place_Name" : "Kyiv"},
  {"Place_Name" : "Honolulu"},
  {"Place_Name" : "Macau"},
  {"Place_Name" : "Wroclaw"},
  {"Place_Name" : "Beirut"},
  {"Place_Name" : "Udine"},
  {"Place_Name" : "Ancona"},
  {"Place_Name" : "Tehran"},
  {"Place_Name" : "Bengaluru"},
  {"Place_Name" : "Leipzig"},
  {"Place_Name" : "Split"},
  {"Place_Name" : "Grenoble"},
  {"Place_Name" : "Ottawa"}  
  
]
